{"type": "FeatureCollection", "features": [ {"type": "Feature", "properties": {"norad_id": 38552, "name": "METEOSAT-10 (MSG-3)", "group": "weather", "lat": -3.379763914941239, "lon": -65.4089378202243, "alt_km": 35782.48538649646, "timestamp": "2025-12-06T14:35:36.770683+00:00", "meta": {"OBJECT_NAME": "METEOSAT-10 (MSG-3)", "OBJECT_ID": "2012-035B", "EPOCH": "2025-12-06T01:40:55.382880", "MEAN_MOTION": 1.0027296, "ECCENTRICITY": 8.777e-05, "INCLINATION": 4.2125, "RA_OF_ASC_NODE": 61.7338, "ARG_OF_PERICENTER": 227.7911, "MEAN_ANOMALY": 170.9393, "EPHEMERIS_TYPE": 0, "CLASSIFICATION_TYPE": "U", "NORAD_CAT_ID": 38552, "ELEMENT_SET_NO": 999, "REV_AT_EPOCH": 4892, "BSTAR": 0, "MEAN_MOTION_DOT": 0, "MEAN_MOTION_DDOT": 0}, "tle": {"line1": "1 38552U 12035B   25340.07008545  .00000000  00000+0  00000+0 0  9995", "line2": "2 38552   4.2125  61.7338 0000877 227.7911 170.9393  1.00272960 48920"}}, "geometry": {"type": "Point", "coordinates": [-65.4089378202243, -3.379763914941239]}}, {"type": "Feature", "properties": {"norad_id": 38771, "name": "METOP-B", "group": "weather", "lat": 48.48979534880884, "lon": 20.730383344732463, "alt_km": 816.7984197393225, "timestamp": "2025-12-06T14:35:36.770694+00:00", "meta": {"OBJECT_NAME": "METOP-B", "OBJECT_ID": "2012-049A", "EPOCH": "2025-12-06T05:54:55.644768", "MEAN_MOTION": 14.21404836, "ECCENTRICITY": 0.0002626, "INCLINATION": 98.6808, "RA_OF_ASC_NODE": 30.3151, "ARG_OF_PERICENTER": 158.5858, "MEAN_ANOMALY": 201.543, "EPHEMERIS_TYPE": 0, "CLASSIFICATION_TYPE": "U", "NORAD_CAT_ID": 38771, "ELEMENT_SET_NO": 999, "REV_AT_EPOCH": 68585, "BSTAR": 0.00016390238, "MEAN_MOTION_DOT": 3.14e-06, "MEAN_MOTION_DDOT": 0}, "tle": {"line1": "1 38771U 12049A   25340.24647737  .00000314  00000+0  16390-3 0  9995", "line2": "2 38771  98.6808  30.3151 0002626 158.5858 201.5430 14.21404836685856"}}, "geometry": {"type": "Point", "coordinates": [20.730383344732463, 48.48979534880884]}}, {"type": "Feature", "properties": {"norad_id": 39216, "name": "INSAT-3D", "group": "weather", "lat": -0.48501151831865336, "lon": 64.08396020619614, "alt_km": 35793.492600633006, "timestamp": "2025-12-06T14:35:36.770710+00:00", "meta": {"OBJECT_NAME": "INSAT-3D", "OBJECT_ID": "2013-038B", "EPOCH": "2025-12-06T05:43:20.225856", "MEAN_MOTION": 1.00272493, "ECCENTRICITY": 0.00017682, "INCLINATION": 1.4271, "RA_OF_ASC_NODE": 85.0642, "ARG_OF_PERICENTER": 158.8992, "MEAN_ANOMALY": 46.6903, "EPHEMERIS_TYPE": 0, "CLASSIFICATION_TYPE": "U", "NORAD_CAT_ID": 39216, "ELEMENT_SET_NO": 999, "REV_AT_EPOCH": 4514, "BSTAR": 0, "MEAN_MOTION_DOT": -3.31e-06, "MEAN_MOTION_DDOT": 0}, "tle": {"line1": "1 39216U 13038B   25340.23842854 -.00000331  00000+0  00000+0 0  9992", "line2": "2 39216   1.4271  85.0642 0001768 158.8992  46.6903  1.00272493 45147"}}, "geometry": {"type": "Point", "coordinates": [64.08396020619614, -0.48501151831865336]}}, {"type": "Feature", "properties": {"norad_id": 39260, "name": "FENGYUN 3C", "group": "weather", "lat": 61.08176290952031, "lon": -57.07205802524918, "alt_km": 842.8839407029909, "timestamp": "2025-12-06T14:35:36.770722+00:00", "meta": {"OBJECT_NAME": "FENGYUN 3C", "OBJECT_ID": "2013-052A", "EPOCH": "2025-12-06T05:49:06.835872", "MEAN_MOTION": 14.15693374, "ECCENTRICITY": 0.00139488, "INCLINATION": 98.4757, "RA_OF_ASC_NODE": 318.2393, "ARG_OF_PERICENTER": 215.4529, "MEAN_ANOMALY": 144.5719, "EPHEMERIS_TYPE": 0, "CLASSIFICATION_TYPE": "U", "NORAD_CAT_ID": 39260, "ELEMENT_SET_NO": 999, "REV_AT_EPOCH": 63126, "BSTAR": 0.00013982619, "MEAN_MOTION_DOT": 2.33e-06, "MEAN_MOTION_DDOT": 0}, "tle": {"line1": "1 39260U 13052A   25340.24244023  .00000233  00000+0  13983-3 0  9990", "line2": "2 39260  98.4757 318.2393 0013948 215.4529 144.5719 14.15693374631266"}}, "geometry": {"type": "Point", "coordinates": [-57.07205802524918, 61.08176290952031]}}, {"type": "Feature", "properties": {"norad_id": 40069, "name": "METEOR-M 2", "group": "weather", "lat": -78.14706457311213, "lon": 3.7982989929078363, "alt_km": 825.7188625912349, "timestamp": "2025-12-06T14:35:36.770733+00:00", "meta": {"OBJECT_NAME": "METEOR-M 2", "OBJECT_ID": "2014-037A", "EPOCH": "2025-12-06T06:31:48.558720", "MEAN_MOTION": 14.21382777, "ECCENTRICITY": 0.00047839, "INCLINATION": 98.4896, "RA_OF_ASC_NODE": 318.1048, "ARG_OF_PERICENTER": 230.8074, "MEAN_ANOMALY": 129.2679, "EPHEMERIS_TYPE": 0, "CLASSIFICATION_TYPE": "U", "NORAD_CAT_ID": 40069, "ELEMENT_SET_NO": 999, "REV_AT_EPOCH": 59191, "BSTAR": 0.00016180823, "MEAN_MOTION_DOT": 3.11e-06, "MEAN_MOTION_DDOT": 0}, "tle": {"line1": "1 40069U 14037A   25340.27208980  .00000311  00000+0  16181-3 0  9998", "line2": "2 40069  98.4896 318.1048 0004783 230.8074 129.2679 14.21382777591919"}}, "geometry": {"type": "Point", "coordinates": [3.7982989929078363, -78.14706457311213]}}, {"type": "Feature", "properties": {"norad_id": 40267, "name": "HIMAWARI-8", "group": "weather", "lat": 0.004934798046273231, "lon": 75.21643593107528, "alt_km": 35791.54454804336, "timestamp": "2025-12-06T14:35:36.770744+00:00", "meta": {"OBJECT_NAME": "HIMAWARI-8", "OBJECT_ID": "2014-060A", "EPOCH": "2025-12-06T05:57:38.626272", "MEAN_MOTION": 1.0026977, "ECCENTRICITY": 0.00013737, "INCLINATION": 0.0515, "RA_OF_ASC_NODE": 138.2854, "ARG_OF_PERICENTER": 150.3275, "MEAN_ANOMALY": 16.7622, "EPHEMERIS_TYPE": 0, "CLASSIFICATION_TYPE": "U", "NORAD_CAT_ID": 40267, "ELEMENT_SET_NO": 999, "REV_AT_EPOCH": 4082, "BSTAR": 0, "MEAN_MOTION_DOT": -2.67e-06, "MEAN_MOTION_DDOT": 0}, "tle": {"line1": "1 40267U 14060A   25340.24836373 -.00000267  00000+0  00000+0 0  9994", "line2": "2 40267   0.0515 138.2854 0001373 150.3275  16.7622  1.00269770 40820"}}, "geometry": {"type": "Point", "coordinates": [75.21643593107528, 0.004934798046273231]}}, {"type": "Feature", "properties": {"norad_id": 40367, "name": "FENGYUN 2G", "group": "weather", "lat": -3.3531722596547775, "lon": 34.35523298187726, "alt_km": 35795.55079083868, "timestamp": "2025-12-06T14:35:36.770756+00:00", "meta": {"OBJECT_NAME": "FENGYUN 2G", "OBJECT_ID": "2014-090A", "EPOCH": "2025-12-05T19:18:26.245152", "MEAN_MOTION": 1.002665, "ECCENTRICITY": 0.00031526, "INCLINATION": 5.1497, "RA_OF_ASC_NODE": 75.1781, "ARG_OF_PERICENTER": 195.2891, "MEAN_ANOMALY": 193.6781, "EPHEMERIS_TYPE": 0, "CLASSIFICATION_TYPE": "U", "NORAD_CAT_ID": 40367, "ELEMENT_SET_NO": 999, "REV_AT_EPOCH": 4006, "BSTAR": 0, "MEAN_MOTION_DOT": -2.95e-06, "MEAN_MOTION_DDOT": 0}, "tle": {"line1": "1 40367U 14090A   25339.80447043 -.00000295  00000+0  00000+0 0  9991", "line2": "2 40367   5.1497  75.1781 0003152 195.2891 193.6781  1.00266500 40068"}}, "geometry": {"type": "Point", "coordinates": [34.35523298187726, -3.3531722596547775]}}, {"type": "Feature", "properties": {"norad_id": 40732, "name": "METEOSAT-11 (MSG-4)", "group": "weather", "lat": -2.1563787978131135, "lon": -56.08157871018214, "alt_km": 35789.72538604949, "timestamp": "2025-12-06T14:35:36.770768+00:00", "meta": {"OBJECT_NAME": "METEOSAT-11 (MSG-4)", "OBJECT_ID": "2015-034A", "EPOCH": "2025-12-06T06:51:43.674624", "MEAN_MOTION": 1.00265459, "ECCENTRICITY": 9.763e-05, "INCLINATION": 2.7192, "RA_OF_ASC_NODE": 72.0205, "ARG_OF_PERICENTER": 118.5529, "MEAN_ANOMALY": 357.0911, "EPHEMERIS_TYPE": 0, "CLASSIFICATION_TYPE": "U", "NORAD_CAT_ID": 40732, "ELEMENT_SET_NO": 999, "REV_AT_EPOCH": 528, "BSTAR": 0, "MEAN_MOTION_DOT": 6.8e-07, "MEAN_MOTION_DDOT": 0}, "tle": {"line1": "1 40732U 15034A   25340.28592216  .00000068  00000+0  00000+0 0  9990", "line2": "2 40732   2.7192  72.0205 0000976 118.5529 357.0911  1.00265459  5281"}}, "geometry": {"type": "Point", "coordinates": [-56.08157871018214, -2.1563787978131135]}}, {"type": "Feature", "properties": {"norad_id": 41105, "name": "ELEKTRO-L 2", "group": "weather", "lat": -2.851670774615069, "lon": -80.0977855610916, "alt_km": 35769.86887437998, "timestamp": "2025-12-06T14:35:36.770779+00:00", "meta": {"OBJECT_NAME": "ELEKTRO-L 2", "OBJECT_ID": "2015-074A", "EPOCH": "2025-12-06T01:36:40.788864", "MEAN_MOTION": 1.00271999, "ECCENTRICITY": 0.00039355, "INCLINATION": 6.208, "RA_OF_ASC_NODE": 72.9071, "ARG_OF_PERICENTER": 200.4894, "MEAN_ANOMALY": 171.3714, "EPHEMERIS_TYPE": 0, "CLASSIFICATION_TYPE": "U", "NORAD_CAT_ID": 41105, "ELEMENT_SET_NO": 999, "REV_AT_EPOCH": 3657, "BSTAR": 0, "MEAN_MOTION_DOT": -1.12e-06, "MEAN_MOTION_DDOT": 0}, "tle": {"line1": "1 41105U 15074A   25340.06713876 -.00000112  00000+0  00000+0 0  9993", "line2": "2 41105   6.2080  72.9071 0003935 200.4894 171.3714  1.00271999 36575"}}, "geometry": {"type": "Point", "coordinates": [-80.0977855610916, -2.851670774615069]}}, {"type": "Feature", "properties": {"norad_id": 41752, "name": "INSAT-3DR", "group": "weather", "lat": -0.055396035989614366, "lon": 8.718296610991434, "alt_km": 35796.56657237399, "timestamp": "2025-12-06T14:35:36.770791+00:00", "meta": {"OBJECT_NAME": "INSAT-3DR", "OBJECT_ID": "2016-054A", "EPOCH": "2025-12-06T03:44:43.524384", "MEAN_MOTION": 1.00269771, "ECCENTRICITY": 0.00145541, "INCLINATION": 0.0757, "RA_OF_ASC_NODE": 87.8911, "ARG_OF_PERICENTER": 181.6165, "MEAN_ANOMALY": 295.8925, "EPHEMERIS_TYPE": 0, "CLASSIFICATION_TYPE": "U", "NORAD_CAT_ID": 41752, "ELEMENT_SET_NO": 999, "REV_AT_EPOCH": 3388, "BSTAR": 0, "MEAN_MOTION_DOT": -6.9e-07, "MEAN_MOTION_DDOT": 0}, "tle": {"line1": "1 41752U 16054A   25340.15605931 -.00000069  00000+0  00000+0 0  9993", "line2": "2 41752   0.0757  87.8911 0014554 181.6165 295.8925  1.00269771 33886"}}, "geometry": {"type": "Point", "coordinates": [8.718296610991434, -0.055396035989614366]}}]}